HST                     
1 20580U 90037B   25040.50571497  .00008501  00000+0  34333-3 0  9995
2 20580  28.4662 189.0385 0002957 107.0174 253.0744 15.22936164713186
POLAR                   
1 23802U 96013A   25036.25829700  .00000302  00000+0  00000+0 0  9996
2 23802  79.3196 232.3782 6019624 225.8400  65.4046  1.29846596138409
SWAS                    
1 25560U 98071A   25040.39290532  .00005053  00000+0  36760-3 0  9994
2 25560  69.8970  53.6913 0009980 287.9231  72.0842 15.04403391423017
CXO                     
1 25867U 99040B   25042.50519223  .00000788  00000+0  00000+0 0  9991
2 25867  46.6977 136.1984 8606811 307.0088   0.3565  0.37802703 26622
XMM-NEWTON              
1 25989U 99066A   25039.74042622  .00000118  00000+0  00000+0 0  9997
2 25989  66.8188 289.5649 4940730  73.4128 359.9150  0.50133866 20531
TERRA                   
1 25994U 99068A   25040.61893280  .00000943  00000+0  20387-3 0  9997
2 25994  98.0169 102.8294 0002139  15.2163 105.5609 14.60455510337698
CLUSTER II-FM7 (SAMBA)  
1 26410U 00041A   25037.59891256  .00001621  00000+0  00000+0 0  9998
2 26410 142.3556   5.6440 8076430 220.8686 359.4172  0.44819644 18099
CLUSTER II-FM5 (RUMBA)  
1 26463U 00045A   25027.96814671  .00024969  00000+0  00000+0 0  9996
2 26463 153.7180  49.7247 8949202 266.8171 359.8501  0.42902652 30358
CLUSTER II-FM8 (TANGO)  
1 26464U 00045B   25040.34854967  .00001278  00000+0  00000+0 0  9994
2 26464 142.6311   6.0516 8087635 221.1574 359.2693  0.44416071 18114
ODIN                    
1 26702U 01007A   25040.59760297  .00020699  00000+0  63366-3 0  9993
2 26702  97.4609  62.3829 0007580 143.6289 216.5470 15.33824883313150
TIMED                   
1 26998U 01055B   25040.62956684  .00003364  00000+0  32488-3 0  9995
2 26998  74.0706 145.3827 0000300 269.3188  90.7961 14.93273964257240
INTEGRAL                
1 27540U 02048A   25039.63853324 -.00000089  00000+0  00000+0 0  9991
2 27540  90.8283   9.9393 8607106 275.1072 352.7146  0.37577231 24778
CORIOLIS                
1 27640U 03001A   25040.61138680  .00000306  00000+0  16513-3 0  9994
2 27640  98.7152  50.0720 0013913 187.2482 172.8495 14.19710961144325
SORCE                   
1 27651U 03004A   25040.52659151  .00006532  00000+0  54005-3 0  9995
2 27651  39.9901 183.3811 0018587 115.6382 244.6333 14.98955835197823
MOST                    
1 27843U 03031D   25040.54876310  .00000220  00000+0  12112-3 0  9999
2 27843  98.7082  50.1419 0009012 230.7646 129.2732 14.21147594120737
SCISAT 1                
1 27858U 03036A   25040.36889004  .00001489  00000+0  19991-3 0  9994
2 27858  73.9291  69.7642 0008916 251.9804 108.0400 14.80320044158496
SWIFT                   
1 28485U 04047A   25040.31206877  .00022286  00000+0  69542-3 0  9995
2 28485  20.5552 269.1806 0006110 123.2670 236.8354 15.31156554110413
CALIPSO                 
1 29108U 06016B   25040.56363846  .00002585  00000+0  46421-3 0  9994
2 29108  98.4414  34.9496 0001676  76.2013 283.9377 14.67598025   754
HINODE (SOLAR-B)        
1 29479U 06041A   25040.56967443  .00001451  00000+0  26389-3 0  9998
2 29479  98.0804  58.6348 0018800  52.8389 307.4529 14.67527650982583
SHIJIAN-6 02A (SJ-6 02A)
1 29505U 06046A   25040.59489372  .00008236  00000+0  52436-3 0  9996
2 29505  97.6988  73.7834 0004689  51.4478 308.7170 15.09022988997766
SHIJIAN-6 02B (SJ-6 02B)
1 29506U 06046B   25040.61177053  .00002757  00000+0  23191-3 0  9998
2 29506  97.7184  69.2882 0002204 170.0249 190.1018 14.99080600996872
FGRST (GLAST)           
1 33053U 08029A   25040.29067808  .00005789  00000+0  24659-3 0  9991
2 33053  25.5841  17.1011 0009304 286.6321  73.3194 15.19970634920650
SDO                     
1 36395U 10005A   25039.16380058 -.00000102  00000+0  00000+0 0  9994
2 36395  33.6127  93.9134 0001452 180.4945 180.9689  1.00276192 55113
CRYOSAT 2               
1 36508U 10013A   25040.57888598  .00000488  00000+0  12033-3 0  9997
2 36508  92.0195 158.3908 0002384 127.2450 232.8975 14.51910772786602
X-SAT                   
1 37389U 11015C   25040.55554419  .00000370  00000+0  17542-3 0  9998
2 37389  98.3051  37.6189 0013946 355.1363   4.9680 14.24953458717514
GCOM-W1 (SHIZUKU)       
1 38337U 12025A   25040.47809581  .00001376  00000+0  31504-3 0  9999
2 38337  98.2285 343.2107 0001271  92.2072  26.6565 14.57181705677282
NUSTAR                  
1 38358U 12031A   25040.58335648  .00017072  00000+0  12167-2 0  9992
2 38358   6.0266 110.0704 0008374   9.5599 353.7683 15.01577486  1304
NEOSSAT                 
1 39089U 13009D   25040.40769152  .00000462  00000+0  17541-3 0  9999
2 39089  98.4036 227.6139 0009978 276.1699  83.8351 14.35498415626033
BRITE-AUSTRIA           
1 39091U 13009F   25040.50771239  .00000519  00000+0  19241-3 0  9994
2 39091  98.3844 227.6314 0009165 271.7320  88.2817 14.36182438626321
IRIS                    
1 39197U 13033A   25040.54623046  .00003294  00000+0  40053-3 0  9992
2 39197  97.9554 236.1809 0026092 126.7741 233.5874 14.83937714627268
HISAKI (SPRINT-A)       
1 39253U 13049A   25040.55320401  .00000142  00000+0  10588-3 0  9991
2 39253  29.7186 204.4498 0137014 343.0967  16.5071 13.55468005564536
CASSIOPE                
1 39265U 13055A   25040.60716462  .00028505  00000+0  49999-3 0  9994
2 39265  80.9467 287.8470 0423951 239.5932 116.2750 14.89015320593488
STSAT-3                 
1 39422U 13066G   25040.58351891  .00005342  00000+0  45180-3 0  9991
2 39422  97.5480  17.3262 0018555 283.4744  76.4411 14.98329688610325
SWARM B                 
1 39451U 13067A   25040.57996292  .00006195  00000+0  25546-3 0  9994
2 39451  87.7504 131.4526 0002724  98.1314 262.0242 15.23883264608103
SWARM A                 
1 39452U 13067B   25040.54355611  .00011323  00000+0  29209-3 0  9995
2 39452  87.3364 237.1915 0002297  86.5140 273.6377 15.39032386630181
SWARM C                 
1 39453U 13067C   25040.54347810  .00011500  00000+0  29664-3 0  9990
2 39453  87.3364 235.7811 0002298  86.7935 273.3583 15.39035294630149
BRITE-CA1 (TORONTO)     
1 40020U 14033L   25040.61189358  .00001975  00000+0  31316-3 0  9997
2 40020  97.9044 176.1263 0081857  53.9776 306.8982 14.71053848569752
OCO 2                   
1 40059U 14035A   25040.58913595  .00001207  00000+0  27803-3 0  9999
2 40059  98.2287 344.0636 0001606  93.5168 266.6214 14.57107647564315
BRITE-PL2 (HEWELIUSZ)   
1 40119U 14049B   25040.24852696  .00003615  00000+0  36592-3 0  9998
2 40119  97.8841 145.3787 0013955 305.6545  54.3373 14.91528625567882
RESURS-P 2              
1 40360U 14087A   25040.53309991  .01902921  23057-5  42417-3 0  9990
2 40360  97.1044 140.5514 0004824 276.5725 219.0658 16.30351478568471
MMS 1                   
1 40482U 15011A   25040.58335648 -.00002777  00000+0  00000+0 0  9991
2 40482  60.5365 358.8146 8860241 156.5624 328.8302  0.28324190  1363
MMS 2                   
1 40483U 15011B   25040.58335648 -.00002780  00000+0  00000+0 0  9996
2 40483  60.5389 358.8119 8865723 156.5566 328.2435  0.28333746  1363
MMS 3                   
1 40484U 15011C   25040.58335648 -.00002779  00000+0  00000+0 0  9995
2 40484  60.5399 358.8111 8864659 156.5567 328.3807  0.28332311  1366
MMS 4                   
1 40485U 15011D   25040.58335648 -.00002776  00000+0  00000+0 0  9993
2 40485  60.5221 358.8223 8863392 156.5315 318.6141  0.28359855  1386
ASTROSAT                
1 40930U 15052A   25034.07890803  .00003478  00000+0  35627-3 0  9995
2 40930   5.9963 143.8216 0007490 116.1192 243.9706 14.80816026505676
DAMPE                   
1 41173U 15078A   25040.59339824  .00002732  00000+0  10017-3 0  9996
2 41173  97.4443  39.6217 0013322  30.1950 330.0054 15.28784655509231
PISAT                   
1 41784U 16059B   25040.57199800  .00002339  00000+0  41942-3 0  9994
2 41784  97.8224  57.7994 0029305 340.8948  19.1156 14.67394506447456
HXMT (HUIYAN)           
1 42758U 17034A   25040.33830117  .00011185  00000+0  49609-3 0  9994
2 42758  43.0149  35.6837 0011640 196.3523 163.6952 15.21555206422879
FLYING LAPTOP           
1 42831U 17042G   25040.57619026  .00003944  00000+0  34055-3 0  9998
2 42831  97.3938 214.3239 0012421   4.0616 356.0706 14.97726776412639
ZHANGHENG 1 (CSES)      
1 43194U 18015C   25040.59428496  .00016564  00000+0  76444-3 0  9993
2 43194  97.6306 193.0584 0009834 140.2970 219.8987 15.20261533389777
SALSAT                  
1 46495U 20068K   25040.38972205  .00010440  00000+0  49095-3 0  9999
2 46495  97.8469  13.2141 0011019 209.4808 150.5805 15.19726710240254
IXPE                    
1 49954U 21121A   25040.58335648  .00008879  00000+0  57331-3 0  9994
2 49954   0.2320  64.2006 0008874 219.0698 294.0226 15.03329880  5762
